Address,City,State,Zip
320 AUDUBON ST,ADAIR,IA,50002
325 SW 7TH ST,STUART,IA,50250
318 WASHINGTON ST,FONTANELLE,IA,50846
201 SCHOOL ST,ORIENT,IA,50858
410 NW 2ND ST,GREENFIELD,IA,50849
904 8TH ST,CORNING,IA,50841
800 17TH ST,CORNING,IA,50841
603 9TH ST,CORNING,IA,50841
300 7TH AVE,NODAWAY,IA,50857
607 2ND ST,PRESCOTT,IA,50859
606 WATERLOO CREEK DRIVE,DORCHESTER,IA,52140
107 SIXTH STREET NW,WAUKON,IA,52172
953 THIRD AVE NW,WAUKON,IA,52172
1059 3RD AVE NW,WAUKON,IA,52172
314 W POST ST,POSTVILLE,IA,52162
314 W POST ST,POSTVILLE,IA,52162
115 MAIN ST,WATERVILLE,IA,52170
234 N 4TH ST,HARPERS FERRY,IA,52146
377 MAIN ST,LANSING,IA,52151
137 RAILROAD AVE,NEW ALBIN,IA,52160
107 SIXTH STREET NW,WAUKON,IA,52172
104 WALNUT ST E,NUMA,IA,52544
112 W MAIN ST,EXLINE,IA,52555
600 CHS DR,CENTERVILLE,IA,52544
600 CHS DR,CENTERVILLE,IA,52544
1800 S 11TH ST,CENTERVILLE,IA,52544
311 3RD ST,PLANO,IA,52581
102 DEPOT LN,CINCINNATI,IA,52549
114 E CHARITON ST,MORAVIA,IA,52571
33214 415TH ST,UNIONVILLE,IA,52594
600 CHS DR,CENTERVILLE,IA,52544
300 WEST MAIN ST.,MYSTIC,IA,52574
111 S MAIN ST,MOULTON,IA,52572
600 TRACY ST.,AUDUBON,IA,50025
106 N. JEFFERSON ST.,EXIRA,IA,50076
610 13TH AVE,BELLE PLAINE,IA,52208
610 13TH AVE,BELLE PLAINE,IA,52208
610 13 AVE,BELLE PLAINE,IA,52208
203 COTTAGE ST NW,SHELLSBURG,IA,52332
500 1ST AVE,VAN HORNE,IA,52346
210 W 21ST ST,VINTON,IA,52349
210 W 21ST ST,VINTON,IA,52349
206 3RD AVE,NEWHALL,IA,52315
100 SCHOOL DR,NORWAY,IA,52318
217 4TH AVE,ATKINS,IA,52206
201 E PINE ST,GARRISON,IA,52229
305 LOUCST ST NW,BLAIRSTOWN,IA,52209
280 4TH ST,KEYSTONE,IA,52249
202 W MAIN ST,URBANA,IA,52345
210 W 21ST ST,VINTON,IA,52349
210 W 21ST ST,VINTON,IA,52349
210 W 21ST ST,VINTON,IA,52349
210 W 21ST ST,VINTON,IA,52349
120 5TH ST N,WALFORD,IA,52351
115 W MAIN ST,DUNKERTON,IA,50626
203 E TOWER ST,DUNKERTON,IA,50626
515 FILMORE ST,LAPORTE CITY,IA,50651
245 S WASHINGTON ST,HUDSON,IA,50643
245 S WASHINGTON ST,HUDSON,IA,50643
2419 FERN AVE,CEDAR FALLS,IA,50613
321 W 8TH ST,CEDAR FALLS,IA,50613
321 W 8TH ST,CEDAR FALLS,IA,50613
2526 ASHWORTH DR,CEDAR FALLS,IA,50613
2526 ASHWORTH DR,CEDAR FALLS,IA,50613
627 ORCHARD DR,CEDAR FALLS,IA,50613
616 HOLMES DR,CEDAR FALLS,IA,50613
616 HOLMES DR,CEDAR FALLS,IA,50613
063 SABIN-MAUCKER,CEDAR FALLS,IA,50613
3909 ROWND ST,CEDAR FALLS,IA,50613
2417 RAINBOW DR,CEDAR FALLS,IA,50613
1227 W 27TH ST,CEDAR FALLS,IA,50613
2417 RAINBOW DR,CEDAR FALLS,IA,50613
3909 ROWND ST,CEDAR FALLS,IA,50613
627 ORCHARD DR,CEDAR FALLS,IA,50613
245 S WASHINGTON ST,HUDSON,IA,50643
316 MCCOY RD,ELK RUN HEIGHTS,IA,50707
1138 CENTRAL AVE,EVANSDALE,IA,50707
1138 CENTRAL AVE,EVANSDALE,IA,50707
812 IDAHO ST,WATERLOO,IA,50701
225 COMMERCIAL ST,WATERLOO,IA,50701
2419 FERN AVE,CEDAR FALLS,IA,50613
1410 INDEPENDENCE AVE,WATERLOO,IA,50703
225 COMMERCIAL ST,WATERLOO,IA,50701
515 FILMORE ST,LAPORTE CITY,IA,50651
616 HOLMES DR,CEDAR FALLS,IA,50613
2125 W LONE TREE ROAD,CEDAR FALLS,IA,50613
1239 SHELDON ST,WATERLOO,IA,50701
3712 CEDAR HIGHS DR,WATERLOO,IA,50702
1115 W 5TH ST,WATERLOO,IA,50702
1350 KATOSKI DR,WATERLOO,IA,50701
1239 SHELDON ST,WATERLOO,IA,50701
312 RACHAEL ST,WATERLOO,IA,50701
5805 KIMBALL AVE,WATERLOO,IA,50701
1304 OREGON ST,WATERLOO,IA,50702
1304 OREGON ST,WATERLOO,IA,50702
2615 WASHINGTON ST,WATERLOO,IA,50702
5805 KIMBALL AVE,WATERLOO,IA,50701
312 RACHAEL ST.,WATERLOO,IA,50701
214 HIGH ST,WATERLOO,IA,50703
302 CEDAR BEND ST,WATERLOO,IA,50703
1516 WASHINGTON ST,WATERLOO,IA,50702
302 CEDAR BEND ST,WATERLOO,IA,50703
1350 KATOSKI DR,WATERLOO,IA,50701
1350 KATOSKI DR,WATERLOO,IA,50701
1410 INDEPENDENCE AVE,WATERLOO,IA,50703
214 HIGH ST,WATERLOO,IA,50703
225 COMMERCIAL ST,WATERLOO,IA,50703
1410 INDEPENDENCE AVE,WATERLOO,IA,50703
1224 MOBILE ST,WATERLOO,IA,50703
812 IDAHO ST,WATERLOO,IA,50703
201 SUNSET RD,WATERLOO,IA,50701
201 SUNSET RD,WATERLOO,IA,50701
1115 W 5TH ST,WATERLOO,IA,50702
425 E RIDGEWAY AVE,WATERLOO,IA,50702
425 E RIDGEWAY AVE,WATERLOO,IA,50702
225 COMMERCIAL ST,WATERLOO,IA,50701
1640 1ST ST,BOONE,IA,50036
1125 HANCOCK DR,BOONE,IA,50036
500 7TH ST,BOONE,IA,50036
500 7TH ST,BOONE,IA,50036
1903 CRAWFORD ST,BOONE,IA,50036
7 LUTHER ST,LUTHER,IA,50152
599 N KENNEDY AVE,MADRID,IA,50157
599 N KENNEDY AVE,MADRID,IA,50157
313 W SYCAMORE ST,OGDEN,IA,50212
599 N KENNEDY AVE,MADRID,IA,50157
599 N KENNEDY AVE,MADRID,IA,50157
34 CEDAR ST,WOODWARD,IA,50276
313 W SYCAMORE ST,OGDEN,IA,50212
112 PILOT ST,PILOT MOUND,IA,50223
1284 U AVE,BOONE,IA,50036
541 E EAGLE ST,DENVER,IA,50622
113 3RD ST,FREDERIKA,IA,50674
505 BARRICK RD,JANESVILLE,IA,50647
707 MAIN ST,PLAINFIELD,IA,50666
200 E 4TH ST,READLYN,IA,50668
802 W 6TH ST,SUMNER,IA,50674
110 1ST AVE SW,TRIPOLI,IA,50676
221 15TH ST NW,WAVERLY,IA,50677
501 HERITAGE WAY,WAVERLY,IA,50677
501 HERITAGE WAY,WAVERLY,IA,50677
100 WARTBURG BLVD,WAVERLY,IA,50677
1405 4TH AVE SW,WAVERLY,IA,50677
1405 4TH AVE SW,WAVERLY,IA,50677
401 WOODRUFF ST,AURORA,IA,50607
609 MAIN ST,BRANDON,IA,52210
1301 1ST ST W,INDEPENDENCE,IA,50644
111 3RD ST N,HAZELTON,IA,50641
1301 1ST ST W,INDEPENDENCE,IA,50644
1301 1ST ST W,INDEPENDENCE,IA,50644
1301 1ST ST W,INDEPENDENCE,IA,50644
1301 1ST ST W,INDEPENDENCE,IA,50644
1301 1ST ST W,INDEPENDENCE,IA,50644
531 PROSPECT ST,JESUP,IA,50648
113 WATER ST N,QUASQUETON,IA,52326
531 PROSPECT ST,JESUP,IA,50648
113 WATER ST N,QUASQUETON,IA,52326
109 ELY ST,ROWLEY,IA,52329
414 5TH ST N,WINTHROP,IA,50682
300 ORCHARD ST,ALBERT CITY,IA,50510
1009 S. MAIN ST,ALTA,IA,51002
410 E. LAKESHORE DR,STORM LAKE,IA,50588
205 S. CLARK ST,NEWELL,IA,50568
4440 HWY 71,SIOUX RAPIDS,IA,50585
930 E. 5TH ST.,STORM LAKE,IA,50588
410 E. LAKESHORE DR,STORM LAKE,IA,50588
617 LAKE AVE,STORM LAKE,IA,50588
610 W 4TH ST,STORM LAKE,IA,50588
215 E. 5TH ST,STORM LAKE,IA,50588
202 W. SOUTH ST.,GREENE,IA,50636
318 N MATHER ST,CLARKSVILLE,IA,50619
508 MAIN ST.,DUMONT,IA,50625
412 3RD ST.,ALLISON,IA,50602
929 PARIOTT ST.,APLINGTON,IA,50604
214 N. CHERRY ST,SHELL ROCK,IA,50670
110 COLFAX ST.,PARKERSBURG,IA,50665
508 BEAVER ST,NEW HARTFORD,IA,50660
109 S ONTARIO ST.,POMEROY,IA,50575
709 W MAIN ST,LAKE CITY,IA,51449
605 2ND ST.,LOHRVILLE,IA,51453
416 4TH ST,ROCKWELL CITY,IA,50579
1601 15TH AVE,MANSON,IA,50563
1601 15TH AVE,MANSON,IA,50563
605 2ND ST.,LOHRVILLE,IA,51453
416 4TH ST,ROCKWELL CITY,IA,50579
416 4TH ST,ROCKWELL CITY,IA,50579
605 2ND ST.,LOHRVILLE,IA,51453
210 W. HEAD ST.,ARCADIA,IA,51430
22676 SWAN LAKE TRAIL,CARROLL,IA,51401
2809 N GRANT RD,CARROLL,IA,51401
1026 N ADAMS ST,CARROLL,IA,51401
1621 NORTH MAIN ST,CARROLL,IA,51401
230 S 5TH AVE,TEMPLETON,IA,51463
806 2ND ST,MANNING,IA,51455
110 S IDAHO ST,GLIDDEN,IA,51443
230 S. 5TH AVE,TEMPLETON,IA,51463
MAIN STREET,LIDDERDALE,IA,51452
123 3RD AVENUE S,COON RAPIDS,IA,50058
105 W 2ND ST,HALBUR,IA,51444
208 MAIN ST,BREDA,IA,51436
1201 E 14TH ST,ATLANTIC,IA,50022
1201 E 14TH ST,ATLANTIC,IA,50022
1201 E 14TH ST,ATLANTIC,IA,50022
1201 E 14TH ST,ATLANTIC,IA,50022
1201 E 14TH ST,ATLANTIC,IA,50022
311 MARKET,LEWIS,IA,51544
311 MARKET ST,WIOTA,IA,50274
1201 E 14TH ST,ATLANTIC,IA,50022
207 E 6TH ST,MASSENA,IA,50853
1000 VICTORY PARK RD,ANITA,IA,50020
207 E 6TH ST,MASSENA,IA,50853
20 MADISON ST,GRISWOLD,IA,51535
207 E 6TH ST,MASSENA,IA,50853
400 E. 6TH ST.,TIPTON,IA,52772
400 BALL ST.,CLARENCE,IA,52216
408 7TH ST.,DURANT,IA,52747
102 E. NORTH ST.,STANWOOD,IA,52337
900 W. MAIN ST.,WEST BRANCH,IA,52358
300 CEDAR ST.,BENNETT,IA,52721
102 N. JOHN ST.,MECHANICSVILLE,IA,52306
703 PARK AVE.,LOWDEN,IA,52255
400 E. 6TH ST.,TIPTON,IA,52772
400 E. 6TH ST.,TIPTON,IA,52772
400 E. 6TH ST.,TIPTON,IA,52772
900 W. MAIN ST.,WEST BRANCH,IA,52358
4 N WEIMER ST,VENTURA,IA,50482
901 S 14TH ST,CLEAR LAKE,IA,50401
901 S 14TH ST,CLEAR LAKE,IA,50428
901 S 14TH ST,CLEAR LAKE,IA,50428
616 BROAD ST,PLYMOUTH,IA,50464
3 NOTTINGHAM ST,ROCK FALLS,IA,50467
210 2ND ST S,ROCKWELL,IA,50469
719 1ST ST,MESERVEY,IA,50457
412 MAIN ST,THORNTON,IA,50479
9184 265TH ST,CLEAR LAKE,IA,50428
3501 LIME CREEK RD,MASON CITY,IA,50401
1239 N RHODE ISLAND AVE,MASON CITY,IA,50401
1239 N RHODE ISLAND AVE,MASON CITY,IA,50401
1421 4TH ST SE,MASON CITY,IA,50401
1123 8TH ST NW,MASON CITY,IA,50401
1123 8TH ST NW,MASON CITY,IA,50401
100 S PIERCE AVE,MASON CITY,IA,50401
500 COLLEGE DR.,MASON CITY,IA,50401
500 COLLEGE DR.,MASON CITY,IA,50401
500 COLLEGE DR.,MASON CITY,IA,50401
313 15TH ST SE,MASON CITY,IA,50401
1625 S PENNSYLVANIA AVE,MASON CITY,IA,50401
1625 S PENNSYLVANIA AVE,MASON CITY,IA,50401
500 COLLEGE DRIVE,MASON CITY,IA,50401
333 MAIN ST,THORNTON,IA,50479
81 E PATRICK ST,DOUGHTERY,IA,50433
300 ASH ST.,AURELIA,IA,51005
102 W GRACE AVE,CLEGHORN,IA,51014
100 MAIN ST,QUIMBY,IA,51049
600 W BLUFF ST.,CHEROKEE,IA,51012
600 W BLUFF ST.,CHEROKEE,IA,51012
600 W BLUFF ST.,CHEROKEE,IA,51012
600 W BLUFF ST.,CHEROKEE,IA,51012
102 W GRACE AVE,CLEGHORN,IA,51014
612 GREELEY ST,NASHUA,IA,50658
301 W MAIN ST,IONIA,IA,50645
701 W MAIN ST,NEW HAMPTON,IA,50659
701 W MAIN ST,NEW HAMPTON,IA,50659
701 W MAIN ST,NEW HAMPTON,IA,50659
701 W MAIN ST,NEW HAMPTON,IA,50659
701 W MAIN ST,NEW HAMPTON,IA,50659
701 W MAIN ST,NEW HAMPTON,IA,50659
300 E MAIN ST,FREDERICKSBURG,IA,50630
414 EAST GROVE,LAWLER,IA,52154
701 W MAIN ST,NEW HAMPTON,IA,50659
414 EAST GROVE,LAWLER,IA,52154
203 S WHITE AVE,ALTA VISTA,IA,50603
800 N. JACKSON ST.,OSCEOLA,IA,50213
216 SHERMAN ST.,MURRAY,IA,50174
800 N. JACKSON ST.,OSCEOLA,IA,50213
800 N. JACKSON ST.,OSCEOLA,IA,50213
800 N. JACKSON ST.,OSCEOLA,IA,50213
800 N. JACKSON ST.,OSCEOLA,IA,50213
800 N. JACKSON ST.,OSCEOLA,IA,50213
302 MAIN ST,PETERSON,IA,51047
306 CHURCH ST,WEBB,IA,51366
100 MAIN ST.,DICKENS,IA,51333
302 MAIN ST,ROYAL,IA,51357
221 RAILWAY ST,GILLETT GROVE,IA,51341
800 E 3RD ST,SPENCER,IA,51301
23 E 7TH ST A,SPENCER,IA,51301
1400 10TH AVE E,SPENCER,IA,51301
724 W 9TH ST,SPENCER,IA,51301
615 4TH AVE SW,SPENCER,IA,51301
1508 5TH AVE E,SPENCER,IA,51301
203 N MAIN ST,EVERLY,IA,51338
1400 N 2ND ST,ELKADER,IA,52043
239 MAIN ST,NORTH BUENA VISTA,IA,52066
401 COMMERCIAL ST,STRAWBERRY POINT,IA,52076
106 W NIAGRA ST,GARNAVILLO,IA,52049
700 WASHINGTON ST,VOLGA,IA,52077
120 MAIN ST,ELKPORT,IA,52044
105 S MAIN ST,ST OLAF,IA,52072
104 S EGBERT ST,MONONA,IA,52159
14734 AGATE RD,ELGIN,IA,52141
502 S 1ST ST,GUTTENBERG,IA,52052
201 W MADISON ST,EDGEWOOD,IA,52042
14734 AGATE RD,ELGIN,IA,52141
102 NORTH ST,MARQUETTE,IA,52158
210 S MAIN ST,ELKADER,IA,52043
311 DELMAR AVE.,DELMAR,IA,52037
937 6TH AVE.,COMANCHE,IA,52730
937 6TH AVE.,COMANCHE,IA,52730
1450 370TH AVE.,GOOSE LAKE,IA,52750
306 8TH AVE.,CLINTON,IA,52732
1951 MANUFACTURING DR.,CLINTON,IA,52732
720 4TH AVE. S,CLINTON,IA,52732
1000 LINCOLN BLVD.,CLINTON,IA,52732
1900 N. 3RD ST.,CLINTON,IA,52732
1401 12TH AVE. N,CLINTON,IA,52732
1350 MAIN AVE.,CLINTON,IA,52732
1350 14TH ST. NW,CLINTON,IA,52732
1450 370TH AVE.,GOOSE LAKE,IA,52750
519 E. 11TH ST.,DEWITT,IA,52742
519 E. 11TH ST.,DEWITT,IA,52742
519 E. 11TH ST.,DEWITT,IA,52742
937 6TH AVE.,CAMANCHE,IA,52730
1450 370TH AVE.,GOOSE LAKE,IA,52750
110 E. PARK RD.,WHEATLAND,IA,52777
323 3RD AVE.,LOW MOOR,IA,52757
80 2ND ST.,CALAMUS,IA,52729
510 SMITH ST.,GRAND MOUND,IA,52751
410 MAIN ST,LOST NATION,IA,52254
110 E. PARK RD.,WHEATLAND,IA,52777
1450 370TH AVE.,GOOSE LAKE,IA,52750
100 MAIN ST,WELTON,IA,52774
321 MAIN ST.,CHARTER OAK,IA,51439
212 N SCHOOL ST,DOW CITY,IA,51528
819 N 16TH ST,DENISON,IA,51442
819 N 16TH ST,DENISON,IA,51442
819 N 16TH ST,DENISON,IA,51442
215 MAIN ST,VAIL,IA,51465
541 MAIN ST.,MANILLA,IA,51454
714 DATE ST.,SCHLESWIG,IA,51461
23932 MEADOW RD,ADEL,IA,50003
801 NILE KINNICK DR,ADEL,IA,50003
23932 MEADOW RD,ADEL,IA,50003
306 W 3RD ST,WOODWARD,IA,50276
605 SE BOONE DR,WAUKEE,IA,50263
605 SE BOONE DR,WAUKEE,IA,50263
801 NILE KINNICK DR,ADEL,IA,50003
317 SPRUCE ST,DE SOTO,IA,50069
1375 HIGH ST,REDFIELD,IA,50233
1200 18TH ST,PERRY,IA,50220
1600 18TH ST,PERRY,IA,50220
1200 18TH ST,PERRY,IA,50220
1600 8TH ST,PERRY,IA,50220
1400 VINE ST,DALLAS CENTER,IA,50063
1375 HIGH ST,REDFIELD,IA,50233
200 SE 37TH ST,GRIMES,IA,50111
200 SE 37TH ST,GRIMES,IA,50111
5050 170TH ST,URBANDALE,IA,50323
910 MAIN ST,VAN METER,IA,50261
2200 STATE STREET,GRANGER,IA,50109
400 LOCUST ST,WAUKEE,IA,50263
16400 DOUGLAS PKWY,CLIVE,IA,50325
1200 WARRIOR LANE,WAUKEE,IA,50263
16400 DOUGLAS PKWY,CLIVE,IA,50325
1200 WARRIOR LN,WAUKEE,IA,50263
400 LOCUST ST,WAUKEE,IA,50263
6075 MILLS CIVIC PKWY,WEST DES MOINES,IA,50266
No data,No data,IA,
33365 335TH ST,WAUKEE,IA,50263
33365 335TH ST,WAUKEE,IA,50263
9155 ASHWORTH RD,WEST DES MOINES,IA,50266
6075 MILLS CIVIC PKWY,WEST DES MOINES,IA,50266
1120 S 95TH ST,WEST DES MOINES,IA,50266
1120 S 95TH ST,WEST DES MOINES,IA,50266
503 E LOCUST ST,BLOOMFIELD,IA,52537
503 E LOCUST ST,BLOOMFIELD,IA,52537
503 E LOCUST ST,BLOOMFIELD,IA,52537
503 E LOCUST ST,BLOOMFIELD,IA,52537
503 E LOCUST ST,BLOOMFIELD,IA,52537
503 E LOCUST ST,BLOOMFIELD,IA,52537
503 E LOCUST ST,BLOOMFIELD,IA,52537
503 E LOCUST ST,BLOOMFIELD,IA,52537
1 UNIVERSITY PL.,LAMONI,IA,50140
209 N. BRIDGE ST.,DAVIS CITY,IA,50065
1201 NE POPLAR ST.,LEON,IA,50144
1201 NE POPLAR ST.,LEON,IA,50144
1201 NE POPLAR ST.,LEON,IA,50144
1201 NE POPLAR ST.,LEON,IA,50144
122 BROADWAY ST.,GRAND RIVER,IA,50108
210 MAIN ST,RYAN,IA,52330
409 EAST ST,EDGEWOOD,IA,52035
1001 DOCTOR ST,MANCHESTER,IA,52057
107 SOUTH ST,DELHI,IA,52223
409 EAST ST.,EDGEWOOD,IA,52035
1001 DOCTOR ST,MANCHESTER,IA,52057
1001 DOCTOR ST,MANCHESTER,IA,52057
1001 DOCTOR ST,MANCHESTER,IA,52057
1001 DOCTOR ST,MANCHESTER,IA,52057
226 PROSPECT ST,EARLVILLE,IA,52041
117 N CENTER ST,DUNDEE,IA,52038
115 S 1ST ST,HOPKINTON,IA,52237
725 N NORTHFIELD ST,MEDIAPOLIS,IA,52601
419 S MAIN ST,DANVILLE,IA,52623
16282 US 34,WEST BURLINGTON,IA,52655
725 N NORTHFIELD ST,MEDIAPOLIS,IA,52601
20454 EASTERN AVE,YARMOUTH,IA,
3075 SUNNYSIDE AVE,BURLINGTON,IA,52601
2040 SUNNYSIDE AVE,BURLINGTON,IA,52601
709 SOUTH STARR,BURLINGTON,IA,52601
421 TERRACE DRIVE,BURLINGTON,IA,52601
800 SOUTH ST,BURLINGTON,IA,52601
2804 S 14TH ST,BURLINGTON,IA,52601
3000 MASON ROAD,BURLINGTON,IA,52601
2132 MADISON AVE.,BURLINGTON,IA,52601
2040 SUNNYSIDE AVE,BURLINGTON,IA,52601
3000 MASON ROAD,BURLINGTON,IA,52601
408 W VAN WEISS BLVD,WEST BURLINGTON,IA,52655
1600 15TH ST.,SPIRIT LAKE,IA,51360
806 N AVE,MILFORD,IA,51351
1600 15TH ST.,SPIRIT LAKE,IA,51360
1600 15TH ST.,SPIRIT LAKE,IA,51360
1600 15TH ST.,SPIRIT LAKE,IA,51360
1600 15TH ST.,SPIRIT LAKE,IA,51360
1600 15TH ST.,SPIRIT LAKE,IA,51360
1600 15TH ST.,SPIRIT LAKE,IA,51360
1600 15TH ST.,SPIRIT LAKE,IA,51360
1600 15TH ST.,SPIRIT LAKE,IA,51360
806 N AVE,MILFORD,IA,51351
806 N AVE,MILFORD,IA,51351
806 N AVE,MILFORD,IA,51351
806 N AVE,MILFORD,IA,51351
806 N AVE,MILFORD,IA,51351
51 N GRANDVIEW AVE,DUBUQUE,IA,52001
1068 CEDAR CROSS RD.,DUBUQUE,IA,52003
2001 RADFORD RD,DUBUQUE,IA,52002
3715 PENNSYLVANIA AVE,DUBUQUE,IA,52202
2135 WOODLAND DR.,DUBUQUE,IA,52002
3170 SPRING VALLEY RD.,DUBUQUE,IA,52001
3259 ST. ANNE DR.,DUBUQUE,IA,52001
2310 CHANEY RD,DUBUQUE,IA,52001
LORAS BLVD/ COX ST,DUBUQUE,IA,52001
2520 PENNSYLVANIA AVE,DUBUQUE,IA,52001
2540 CENTRAL AVE,DUBUQUE,IA,52001
3450 CENTRAL AVE,DUBUQUE,IA,52001
801 DAVIS ST,DUBUQUE,IA,52001
605 LINCOLN AVE,DUBUQUE,IA,52001
1450 RHOMBERG AVE,DUBUQUE,IA,52001
1151 WHITE ST,DUBUQUE,IA,52001
700 MAIN ST,DUBUQUE,IA,52001
1800 CLARKE DR,DUBUQUE,IA,52001
51 N GRANDVIEW AVE,DUBUQUE,IA,52001
1280 RUSH ST,DUBUQUE,IA,52003
15766 CLOVER LANE,ASBURY,IA,52002
2007 RADFORD RD,DUBUQUE,IA,52002
505 JOHNSON ST. NW,CASCADE,IA,52033
8342 NICC DR.,PEOSTA,IA,52068
1992 MAIN ST,NEW VIENNA,IA,52065
12015 SHERRILL RD,DUBUQUE,IA,52002
203 2ND ST. SW,DYERSVILLE,IA,52040
203 2ND ST SW,DYERSVILLE,IA,52040
216 1ST AVE. WEST,WORTHINGTON,IA,52078
204 1ST AVE NW,FARLEY,IA,52041
201 JACOBY DR. E,EPWORTH,IA,52045
563 BALLTOWN RD,SHERILL,IA,52073
100 TOWER DR,DUBUQUE,IA,52003
547 ROLUS ST,BERNARD,IA,52032
14569 OLD HWY RD,DUBUQUE,IA,52002
519 6TH ST,ARMSTRONG IA,IA,50514
300 S 18TH ST,ESTHERVILLE,IA,51334
5 W MAPLE ST,RINGSTED,IA,50578
300 S 18TH ST,ESTHERVILLE,IA,51334
300 18TH ST,ESTHERVILLE,IA,51334
300 S 18TH ST,ESTHERVILLE,IA,51334
300 S 18TH ST,ESTHERVILLE,IA,51334
300 S 18TH ST,ESTHERVILLE,IA,51334
300 S 18TH ST,ESTHERVILLE,IA,51334
300 S 18TH ST,ESTHERVILLE,IA,51334
300 S 18TH ST,ESTHERVILLE,IA,51334
101 W MAIN ST,ST. LUCAS,IA,52166
305 PEMBER ST,MAYNARD,IA,50655
113 E MAIN HAWKEYE,HAWKEYE,IA,52147
605 WASHINGTON ST,FAYETTE,IA,52142
23493 CANOE RD,ELGIN,IA,52141
210 N VINE ST,WEST UNION,IA,52175
103 1ST AVE SW,WAUCOMA,IA,52171
116 MAIN ST E,FAIRBANK,IA,50629
3202 40TH ST,ARLINGTON,IA,50606
305 PEMBER ST,MAYNARD,IA,50655
136 MILL ST,WADENA,IA,52169
111 8TH AVE NE,OELWEIN,IA,50662
300 12TH AVE SE,OELWEIN,IA,50662
300 12TH AVE SE,OELWEIN,IA,50662
300 12TH AVE SE,OELWEIN,IA,50662
300 12TH AVE SE,OELWEIN,IA,50662
111 8TH AVE NE,OELWEIN,IA,50662
23493 CANOE ROAD,ELGIN,IA,52141
111 8TH AVE NE,OELWEIN,IA,50662
305 PEMBER ST,MAYNARD,IA,50655
210 N VINE ST,WEST UNION,IA,52175
212 S VINE ST,WEST UNION,IA,52175
114 N VINE ST,WEST UNION,IA,52175
205 N VINE ST,WEST UNION,IA,52175
605 WASHINGTON ST,FAYETTE,IA,52142
1 COMET DR,CHARLES CITY,IA,50616
1 COMET DR,CHARLES CITY,IA,50616
1 COMET DR,CHARLES CITY,IA,50616
706 FAIRFIELD ST,FLOYD,IA,50435
509 IOWA AVE,NORA SPRINGS,IA,50458
1460 210TH ST,ROCKFORD,IA,50468
520 COLLEGE ST,MARBLE ROCK,IA,50653
1 COMET DR,CHARLES CITY,IA,50616
601 12TH AVE NE,HAMPTON,IA,50441
601 12TH AVE NE,HAMPTON,IA,50441
1441 GULL AVE,LATIMER,IA,50452
601 12TH AVE NE,HAMPTON,IA,50441
601 12TH AVE NE,HAMPTON,IA,50441
601 12TH AVE NE,HAMPTON,IA,50441
601 12TH AVE NE,HAMPTON,IA,50441
1441 GULL AVE,LATIMER,IA,50452
1441 GULL AVE,LATIMER,IA,50452
504 PARK ST,SHEFFIELD,IA,50475
601 12TH AVE NE,HAMPTON,IA,50441
1441 GULL AVE,LATIMER,IA,50452
907 HARTFORD AVE,FARRAGUT,IA,51639
1114 US-275,TABOR,IA,51653
1004 ILLINOIS ST,SIDNEY,IA,51652
907 HARTFORD AVE,FARRAGUT,IA,51652
1004 ILLINOIS ST,SIDNEY,IA,51652
220 N. CHESTNUT ST,JEFFERSON,IA,50129
107 MAIN ST E,GRAND JUNCTION,IA,50107
101 RAM DRIVE,JEFFERSON,IA,50129
101 RAM DRIVE,JEFFERSON,IA,50129
101 RAM DRIVE,JEFFERSON,IA,50129
414 SAND ST.,CHURDAN,IA,50050
900 MADISON ST.,SCRANTON,IA,51462
215 MAIN STREET,BEAMAN,IA,50609
1301 12TH ST,GRUNDY CENTER,IA,50638
1301 12TH ST,GRUNDY CENTER,IA,50638
1301 12TH ST,GRUNDY CENTER,IA,50638
330 MAIN STREET,DIKE,IA,50624
300 CEDAR ST,REINBECK,IA,50669
1301 12TH ST,GRUNDY CENTER,IA,50638
3384 INDIGO AVE,ADAIR,IA,50002
701 W MAIN ST,PANORA,IA,50216
701 W MAIN ST,PANORA,IA,50216
900 SCHOOL ST,GUTHRIE CENTER,IA,50115
200 MAIN ST,YALE,IA,50277
3299 WHITE POLE RD,STUART,IA,50250
301 3RD ST,BAYARD,IA,50029
900 SCHOOL ST,GUTHRIE CENTER,IA,50115
1229 KATHY LANE,WEBSTER CITY,IA,50595
216 MAIN ST,WILLIAMS,IA,50271
1000 SHAKESPEARE AVE,STRATFORD,IA,50249
315 DIVISION ST,JEWELL,IA,50130
1549 DEWITT ST,ELLSWORTH,IA,50075
1901 WILLSON AVE,WEBSTER CITY,IA,50595
1229 KATHY LANE,WEBSTER CITY,IA,50595
1101 BOONE ST,WEBSTER CITY,IA,50595
605 W LYONS ST,GARNER,IA,50438
204 E MAIN ST,KLEMME,IA,50449
510 9TH AVE SW,BRITT,IA,50423
510 9TH AVE SW,BRITT,IA,50423
510 9TH AVE SW,BRITT,IA,50423
605 W LYONS ST,GARNER,IA,50438
605 W LYONS ST,GARNER,IA,50438
204 E MAIN ST,KLEMME,IA,50449
423 EAST 5TH ST,KANAWHA,IA,50447
423 EAST 5TH ST,KANAWHA,IA,50447
502 WEST ST,ALDEN,IA,50006
200 E. CHESTNUT ST.,HUBBARD,IA,50122
1800 24TH ST,ELDORA,IA,50627
1800 24TH ST,ELDORA,IA,50627
902 8TH AVE,ACKLEY,IA,50601
707 ELLSWORTH AVE,IOWA FALLS,IA,50126
1124 UNION ST,IOWA FALLS,IA,50126
1510 WASHINGTON AVE,IOWA FALLS,IA,50126
407 1ST ST,LITTLE SIOUX,IA,51545
"111 N 2ND AVE, 3RD FLOOR",LOGAN,IA,51546
605 E LINCOLN HIGHWAY,MISSOURI VALLEY,IA,51555
605 E LINCOLN HWY,MISSOURI VALLEY,IA,51555
3833 296TH ST,PERSIA,IA,51563
206 POLK ST,PISGAH,IA,51564
1102 IOWA AVE,DUNLAP,IA,51529
200 MAPLE STREET,MONDAMIN,IA,51579
"111 N 2ND AVE, 3RD FLOOR",LOGAN,IA,51546
704 NORMAL ST,WOODBINE,IA,51579
704 NORMAL ST,WOODBINE,IA,51579
108 E HALEY ST,MODALE,IA,51556
204 E 6TH ST,LOGAN,IA,51546
400 N. ADAMS ST.,MOUNT PLEASANT,IA,52641
801 E. HENRY ST.,MOUNT PLEASANT,IA,52641
600 N. MAIN ST.,MOUNT PLEASANT,IA,52641
501 S. CORKHILL ST.,MOUNT PLEASANT,IA,52641
2104 S. GRAND AVE.,MOUNT PLEASANT,IA,52641
208 S. OLIVE ST.,WINFIELD,IA,52659
706 N. PEARL ST.,WAYLAND,IA,52654
106 W. WILSON ST.,NEW LONDON,IA,52645
201 S. MAIN ST.,SALEM,IA,52649
701 BUSTI AVE,ELMA,IA,50628
14258 45TH ST,LIME SPRINGS,IA,52155
100 SCHROEDER DR,CRESCO,IA,52136
100 SCHROEDER DR,CRESCO,IA,52136
100 SCHROEDER DR,CRESCO,IA,52136
912 WOODLAND AVE,RICEVILLE,IA,50466
100 SCHROEDER DR,CRESCO,IA,52136
14258 45TH ST,LIME SPRINGS,IA,52155
100 SCHROEDER DR,CRESCO,IA,52136
612 2ND AVE N,HUMBOLDT,IA,50548
612 2ND AVE N,HUMBOLDT,IA,50548
612 2ND AVE N,HUMBOLDT,IA,50548
612 2ND AVE N,HUMBOLDT,IA,50548
612 2ND AVE N,HUMBOLDT,IA,50548
612 2ND AVE N,HUMBOLDT,IA,50548
612 2ND AVE N,HUMBOLDT,IA,50548
612 2ND AVE N,HUMBOLDT,IA,50548
612 2ND AVE N,HUMBOLDT,IA,50548
403 BARNES ST.,IDA GROVE,IA,51445
403 BARNES ST.,IDA GROVE,IA,51445
519 E MAPLE ST,HOLSTEIN,IA,51025
519 E MAPLE ST,HOLSTEIN,IA,51025
403 BARNES ST.,IDA GROVE,IA,51445
403 BARNES ST.,IDA GROVE,IA,51445
403 BARNES ST.,IDA GROVE,IA,51445
461 WASHINGTON ST,MILLERSBURG,IA,52316
765 W BROAD ST,NORTH ENGLISH,IA,52316
2383 RAIDER DR,WILLIAMSBURG,IA,52361
710 2ND ST,VICTOR,IA,52347
710 2ND ST,VICTOR,IA,52347
235 E HILTON ST,MARENGO,IA,52301
235 E HILTON ST,MARENGO,IA,52301
3023 220TH TRAIL,MIDDLE AMANA,IA,52307
235 E HILTON ST,MARENGO,IA,52301
2383 RAIDER DR,WILLIAMSBURG,IA,52361
2383 RAIDER DR,WILLIAMSBURG,IA,52361
100 S 3RD ST,BELLEVUE,IA,52031
430 FERRY RD,MILES,IA,52064
411 BROAD ST,SABULA,IA,52070
1003 PERSHING RD,MAQUOKETA,IA,52060
126 S 2ND ST,MAQUOKETA,IA,52060
600 W WASHINGSTON ST,MAQUOKETA,IA,52060
600 W WASHINGTON ST,MAQUOKETA,IA,52060
200 E LOCUST ST,MAQUOKETA,IA,52060
100 MAIN ST,ST DONATUS,IA,52071
523 ELM ST,LA MOTTE,IA,52054
21701 HILL DR,BERNARD,IA,52032
108 E WASHINGTON ST,MONMOUTH,IA,52309
13 S MARION ST,ANDREW,IA,52030
400 W QUARRY ST,MAQUOKETA,IA,52060
101 E MAIN ST,SPRINGBROOK,IA,52075
321 W SCHOOL ST,PRESTON,IA,52069
200 E RAILROAD ST,MINGO,IA,50168
204 N LEAGUE RD,COLFAX,IA,50054
204 N LEAGUE RD,COLFAX,IA,50054
20 W BROADWAY ST,COLFAX,IA,50054
503 S STATE ST,PRAIRIE CITY,IA,50228
12476 1ST ST,SULLY,IA,50251
400 E HWY 163,MONROE,IA,50170
417 FRONT ST,KELLOGE,IA,50135
203 S MAIN ST,BAXTER,IA,50028
20 W BROADWAY ST,COLFAX,IA,50054
1302 FIRST AVE. W,NEWTON,IA,50208
1900 N 5TH AVE E,NEWTON,IA,50208
700 N 4TH AVE E,NEWTON,IA,50208
1900 N 5TH AVE E,NEWTON,IA,50208
800 E 4TH ST S,NEWTON,IA,50208
310 E 23RD ST S,NEWTON,IA,50208
801 S 8TH ST W,NEWTON,IA,50208
800 E 4TH ST S,NEWTON,IA,50208
103 THOMAS JEFFERSON RD,LAMBS GROVE,IA,50208
6232 HIGHWAY S74S,NEWTON,IA,50208
203 CHURCH ST,PACKWOOD,IA,52580
209 S. COURT ST.,FAIRFIELD,IA,52556
2606 W. BURLINGTON AVE.,FAIRFIELD,IA,52556
406 E. MADISON AVE.,FAIRFIELD,IA,52556
200 N. MAIN ST.,FAIRFIELD,IA,52556
209 S. COURT ST.,FAIRFIELD,IA,52556
200 N. MAIN ST.,FAIRFIELD,IA,52556
2606 W. BURLINGTON AVE.,FAIRFIELD,IA,52556
108 N. MAIN ST.,LIBERTYVILLE,IA,52567
304 ALTO ST.,BATAVIA,IA,52533
1174 REED AVE.,BRIGHTON,IA,52540
104 W. MAIN ST.,LOCKRIDGE,IA,52635
600 W. 5TH ST.,SOLON,IA,52333
313 S. IOWA ST.,SOLON,IA,52333
104 N PARK RD,TIFFIN,IA,52340
1301 5TH ST,CORALVILLE,IA,52241
1220 1ST AVE.,CORALVILLE,IA,52241
601 OAKDALE BLVD.,CORALVILLE,IA,52241
1401 5TH ST.,CORALVILLE,IA,52241
1507 8TH AVE.,CORALVILLE,IA,52241
180 W. FOREVERGREEN RD.,NORTH LIBERTY,IA,52317
2301 OAKDALE BLVD.,CORALVILLE,IA,52241
303 DEVOE ST. S,LONE TREE,IA,52755
4696 ROBIN WOODS LN NE,IOWA CITY,IA,52240
2009 400TH ST SW,OXFORD,IA,52322
110 MAIN ST,HILLS,IA,52235
1900 MORNINGSIDE DR.,IOWA CITY,IA,52245
2901 MELROSE AVE.,IOWA CITY,IA,52246
225 S GRAND AVE,IOWA CITY,IA,52240
225 S GRAND AVE,IOWA CITY,IA,52240
125 N MADISON ST,IOWA CITY,IA,52242
2701 BRADFORD DR.,IOWA CITY,IA,52240
2425 PRAIRIE MEADOW DR.,IOWA CITY,IA,52242
2901 MELROSE AVE.,IOWA CITY,IA,52246
2901 MELROSE AVE.,IOWA CITY,IA,52246
4213 SAND RD SE,IOWA CITY,IA,
93 E. BURLINGTON ST.,IOWA CITY,IA,52240
3571 SYCAMORE ST.,IOWA CITY,IA,52240
3109 OLD HWY 218 S,IOWA CITY,IA,52246
1550 S. 1ST AVE.,IOWA CITY,IA,52240
1355 DEFOREST AVE,IOWA CITY,IA,
830 SOUTHLAWN DR.,IOWA CITY,IA,52245
1900 MORNINGSIDE DR,IOWA CITY,IA,52245
2501 BRADFORD DR,IOWA CITY,IA,
220 S GILBERT ST,IOWA CITY,IA,52240
221 E. WASHINGTON ST.,IOWA CITY,IA,52240
125 N MADISON ST,IOWA CITY,IA,52240
21 E. MARKET ST.,IOWA CITY,IA,52242
2525 N. DODGE ST.,IOWA CITY,IA,52245
1355 BARRINGTON RD.,IOWA CITY,IA,52240
2863 120TH ST. NE,SWISHER,IA,52338
68 3RD ST. SE,SWISHER,IA,52338
301 MAIN ST,HILLS,IA,52235
4696 ROBIN WOODS LN NE,IOWA CITY,IA,52240
520 W CHERRY ST,NORTH LIBERTY,IA,
80 BIRCH ST,NORTH LIBERTY,IA,
230 N. DUBUQUE ST.,NORTH LIBERTY,IA,52317
170 ABIGAIL RD,NORTH LIBERTY,IA,
2230 SAINT ANDREWS DR,NORTH LIBERTY,IA,
520 W CHERRY ST,NORTH LIBERTY,IA,
230 WILSON ST.,OXFORD,IA,52322
1400 DUBUQUE ST. NE,NORTH LIBERTY,IA,52317
4643 AMERICAN LEGION RD.,IOWA CITY,IA,52240
301 MAIN ST,HILLS,IA,52235
313 S. IOWA ST.,SOLON,IA,52333
4810 MELROSE AVE,IOWA CITY,IA,52246
600 KOSER AVE,IOWA CITY,IA,
1592 ANGLE RD SW,KALONA,IA,
3109 OLD HWY 218 S,IOWA CITY,IA,52246
410 OLD DUBUQUE RD,ANAMOSA,IA,52205
600 E MAIN ST,ANAMOSA,IA,52205
766 N MAPLE ST,MONTICELLO,IA,52310
600 E 1ST ST,ANAMOSA,IA,52205
202 SOUTH ST,MARTELLE,IA,52305
220 WELTER DR,MONTICELLO,IA,52310
800 N MAPLE ST,MONTICELLO,IA,52310
850 E OAK ST,MONTICELLO,IA,52310
850 E OAK ST,MONTICELLO,IA,52310
115 E BROADWAY,OXFORD JUNCTION,IA,52323
220 WELTER DR,MONTICELLO,IA,52310
212 TRILBY ST,OLIN,IA,52320
105 MAIN ST,ONSLOW,IA,52321
130 W MAIN ST,WYOMING,IA,52362
3003 IA-22,KESWICK,IA,50136
109 N MAIN ST,HEDRICK,IA,52563
907 E. PLEASANT VALLEY ST.,SIGOURNEY,IA,52591
401 BROADWAY ST,SOUTH ENGLISH,IA,52335
100 MAIN ST,RICHLAND,IA,52585
225 E BROADWAY AVE,KEOTA,IA,52248
3003 IA-22,KESWICK,IA,50136
100 MAIN ST,RICHLAND,IA,52585
720 E JACKSON ST,SIGOURNEY,IA,52591
10 N MAIN ST,SIGOURNEY,IA,52591
615 S. JEFFERSON ST.,SIGOURNEY,IA,52591
907 E PLEASANT VALLEY ST,SIGOURNEY,IA,52591
22400 220TH AVE.,SIGOURNEY,IA,52591
104 N 2ND ST,DELTA,IA,52550
308 SOUTH BARNES ST.,WHAT CHEER,IA,50268
729 E. KENNEDY,ALGONA,IA,50511
600 S HALE ST,ALGONA,IA,50511
600 S HALE ST,ALGONA,IA,50511
108 S HALL STREET,ALGONA,IA,50511
400 1ST ST,BURT,IA,50522
400 1ST ST,BURT,IA,50522
600 S HALE ST,ALGONA,IA,50511
600 S HALE ST,ALGONA,IA,50511
108 S HALL STREET,ALGONA,IA,50511
203 5TH ST N,SWEA CITY,IA,50590
411 BROAD ST,WHITTEMORE,IA,50598
505 E RAMSEY ST,BANCROFT,IA,50517
505 E RAMSEY ST,BANCROFT,IA,50517
205 BREWER ST,LAKOTA,IA,
2111 US-169,ALGONA,IA,50511
411 BROAD ST,WHITTEMORE,IA,50598
106 MAIN ST E,WESLEY,IA,50483
2111 US-169,ALGONA,IA,50511
106 MAIN ST E,WESLEY,IA,50483
2111 US-169,ALGONA,IA,50511
2642 HIGHWAY 218,DONNELLSON,IA,52625
501 10TH ST,FORT MADISON,IA,
1326 AVENUE E,FORT MADISON,IA,
2001 AVENUE B,FORT MADISON,IA,
4821 AVENUE O STE 4,FORT MADISON,IA,
3301 AVENUE L,FORT MADISON,IA,
506 N MAIN ST,DONNELLSON,IA,
3301 AVENUE L,FORT MADISON,IA,
3640 ARGYLE ROAD,KEOKUK,IA,52632
301 BLONDEAU STREET,KEOKUK,IA,52632
508 MAIN ST.,KEOKUK,IA,52632
116 N. 8TH ST.,KEOKUK,IA,52632
3476 MAIN STREET,KEOKUK,IA,52632
2002 ORLEANS AVE,KEOKUK,IA,
3476 MAIN STREET,KEOKUK,IA,52632
2940 DECATUR ST,KEOKUK,IA,
710 MAIN ST,MONTROSE,IA,
2001 AVENUE B,FORT MADISON,IA,
728 AVENUE G,FORT MADISON,IA,
6101 GIBSON DR NE,CEDAR RAPIDS,IA,52411
1700 BOYSON RD NE,CEDAR RAPIDS,IA,52402
901 E MAIN ST,ROBINS,IA,52328
9000 C AVE NE,MARION,IA,52302
9000 C AVE NE,MARION,IA,52302
4801 GOLF ST NE,CEDAR RAPIDS,IA,52402
220 40TH ST NE,CEDAR RAPIDS,IA,52402
3700 E AVE NE,CEDAR RAPIDS,IA,52402
1524 HOLLYWOOD BLVD NE,CEDAR RAPIDS,IA,52402
4545 WENIG RD NE,CEDAR RAPIDS,IA,52402
5925 SEMINOLE VALLEY TRAIL NE,CEDAR RAPIDS,IA,52411
4343 MARILYN DR NE,CEDAR RAPIDS,IA,52402
1635 LINMAR DR NE,CEDAR RAPIDS,IA,52402
2630 B AVE NE,CEDAR RAPIDS,IA,52402
2205 FOREST DR SE,CEDAR RAPIDS,IA,52403
300 20TH ST NE,CEDAR RAPIDS,IA,52402
700 16TH ST NE L100,CEDAR RAPIDS,IA,52402
50 2ND AVE BRIDGE,CEDAR RAPIDS,IA,52401
2500 EDGEWOOD RD NW,CEDAR RAPIDS,IA,52405
5200 E AVE NW,CEDAR RAPIDS,IA,52405
300 13TH ST NW,CEDAR RAPIDS,IA,52405
"""1220 1ST AVE NE"" CORNER OF COLLEGE DRIVE & MARV LEVY RD (WHERE D AVE WOULD BE)",CEDAR RAPIDS,IA,52402
355 18TH ST SE,CEDAR RAPIDS,IA,52403
2205 FOREST DR SE,CEDAR RAPIDS,IA,52403
50 2ND AVE BRIDGE,CEDAR RAPIDS,IA,52403
620 10TH ST SE,CEDAR RAPIDS,IA,52403
300 13TH ST NW,CEDAR RAPIDS,IA,52405
2200 1ST AVE NW,CEDAR RAPIDS,IA,52405
1211 WILEY BLVD SW,CEDAR RAPIDS,IA,52404
441 W POST RD NW,CEDAR RAPIDS,IA,52405
6225 1ST AVENUE SW,CEDAR RAPIDS,IA,52405
6225 1ST AVENUE SW,CEDAR RAPIDS,IA,52405
1243 20TH ST SW,CEDAR RAPIDS,IA,52404
1400 INSIPIRATION PL SW,CEDAR RAPIDS,IA,52404
1103 3RD ST SE,CEDAR RAPIDS,IA,52401
600 36TH ST SE,CEDAR RAPIDS,IA,52403
2736 BOWLING ST SW,CEDAR RAPIDS,IA,52404
2301 J ST SW,CEDAR RAPIDS,IA,52404
1243 20TH ST SW,CEDAR RAPIDS,IA,52405
153 CHERRY HILL RD NW,CEDAR RAPIDS,IA,52405
5338 JOHNSON AVE SW,CEDAR RAPIDS,IA,52404
4401 6TH ST SW,CEDAR RAPIDS,IA,52404
6301 KIRKWOOD BLVD SW,CEDAR RAPIDS,IA,52404
6301 KIRKWOOD BLVD SW,CEDAR RAPIDS,IA,52404
216 MAIN ST,FAIRFAX,IA,52228
150 9TH AVE,HIAWATHA,IA,52233
101 EMMONS ST,HIAWATHA,IA,52233
1770 BOYSON RD,HIAWATHA,IA,52233
1770 BOYSON RD,HIAWATHA,IA,52233
1400 10TH AVE,MARION,IA,52302
1225 6TH AVE,MARION,IA,52302
1350 4TH AVE,MARION,IA,52302
675 S 15TH ST,MARION,IA,52302
3555 10TH ST,MARION,IA,52302
2900 8TH AVENUE,MARION,IA,52302
2127 27TH ST,MARION,IA,52302
2301 50TH ST,MARION,IA,52302
2210 GRAND AVE,MARION,IA,52302
1700 BIG BLUESTEM DR,MARION,IA,52302
401 29TH AVE,MARION,IA,52302
4500 10TH ST,MARION,IA,52302
4901 ALBURNETT RD,MARION,IA,52302
4901 ALBURNETT RD,MARION,IA,52302
525 PALISADES RD SW,MOUNT VERNON,IA,52314
"600 1ST ST, MT VERNON, IA 52314",MOUNT VERNON,IA,52314
3275 NORTH CENTER POINT RD,CEDAR RAPIDS,IA,52411
4201 BIG BLUESTEM CIR,MARION,IA,52302
300 WEST AVE,PRAIRIEBURG,IA,52219
252 BROADWAY ST,SPRINGVILLE,IA,52336
4521 BOY SCOUT RD,CENTRAL CITY,IA,52214
5200 E AVE NW,CEDAR RAPIDS,IA,52405
401 78TH AVE SW,CEDAR RAPIDS,IA,52404
300 80TH ST CT,FAIRFAX,IA,52228
1006 1ST ST,PALO,IA,52324
235 W SCHOOL ST,LISBON,IA,52314
204 GREENE ST,WALKER,IA,52352
400 BARBER ST,CENTRAL CITY,IA,52214
310 VIRGIL AVE,MOUNT VERNON,IA,52314
137 N. 4TH ST,CENTRAL CITY,IA,52214
1954 COUNTY HOME ROAD,MARION,IA,52302
10260 MORRIS HILL RD,TODDVILLE,IA,52341
6101 GIBSON DR NE,CEDAR RAPIDS,IA,52411
131 ROOSEVELT ST,ALBURNETT,IA,52202
401 76TH AVE SW,CEDAR RAPIDS,IA,52404
3033 LYNX DR,TROY MILLS,IA,52344
613 SUMMIT ST,CENTER POINT,IA,52213
1212 COLTON ST,COLUMBUS JUNCTION,IA,52738
14506 170TH ST,GRANDVIEW,IA,52754
311 E DIVISION ST,MORNING SUN,IA,52640
501 BUCHANAN AVE,WAPELLO,IA,52653
1212 COLTON ST,COLUMBUS JUNCTION,IA,52738
501 N GRAND,CHARITON,IA,50049
501 N GRAND,CHARITON,IA,50049
501 N GRAND,CHARITON,IA,50049
110 E FRONT ST,LUCAS,IA,50151
501 N GRAND,CHARITON,IA,50049
106 W STANTON ST,RUSSELL,IA,50238
106 W STANTON ST,RUSSELL,IA,50238
103 S MAIN ST,INWOOD,IA,
117 S MAIN ST,GEORGE,IA,
103 S MAIN ST,INWOOD,IA,
1138 BROADWAY ST,LARCHWOOD,IA,
1138 BROADWAY ST,LARCHWOOD,IA,
117 S MAIN ST,GEORGE,IA,
405 S 2ND AVE,ROCK RAPIDS,IA,
405 S 2ND AVE,ROCK RAPIDS,IA,
110 W SOUTH ST,MACKSBURG,IA,50155
1146 W SUMMIT ST,WINTERSET,IA,50273
611 W HWY 92,WINTERSET,IA,50273
150 E 1ST ST,EARLHAM,IA,50072
305 W. MAIN ST,ST. CHARLES,IA,50240
150 8TH ST,PATTERSON,IA,50218
405 E NORTH ST,TRURO,IA,50257
404 S 2ND AVE,WINTERSET,IA,50273
404 S. 2ND AVE,WINTERSET,IA,50273
2163 135TH ST.,NEW SHARON,IA,50207
306 OTLEY ST.,LEIGHTON,IA,50143
525 E. MAIN ST.,FREMONT,IA,52561
1801 ORCHARD AVE.,OSKALOOSA,IA,52577
1816 N. 3RD ST.,OSKALOOSA,IA,52577
201 W. TRUEBLOOD AVE.,OSKALOOSA,IA,52577
1801 ORCHARD AVE.,OSKALOOSA,IA,52577
1704 N. 3RD ST.,OKALOOSA,IA,52577
1816 N. 3RD ST.,OSKALOOSA,IA,52577
2163 135TH ST.,NEW SHARON,IA,50207
2342 HIGHWAY 92,OSKALOOSA,IA,52577
300 MAIN ST.,HARVEY,IA,50119
214 S. MAIN ST.,MELCHER-DALLAS,IA,50062
1766 179TH PL.,PERSHING,IA,50138
407 W. LARSON ST.,KNOXVILLE,IA,50138
213 E MONTGOMERY ST,KNOXVILLE,IA,50138
306 S PARK LN,KNOXVILLE,IA,50138
1506 S ATTICA ROAD,KNOXVILLE,IA,50138
210 N IOWA ST,KNOXVILLE,IA,50138
812 UNIVERSITY ST,PELLA,IA,50219
2204 HIGHWAY G71,BUSSY,IA,50044
215 SUMMIT ST.,OTLEY,IA,50214
812 UNIVERSITY ST,PELLA,IA,50219
415 BROADWAY ST,PELLA,IA,50219
814 UNIVERSITY ST,PELLA,IA,50219
415 BROADWAY ST,PELLA,IA,50219
415 JONES ST.,PLEASANTVILLE,IA,50226
1032 VIRGINIA ST.,COLUMBIA,IA,50067
114 MAIN ST,LISCOMB,IA,50148
25 MAIN ST,MELBOURNE,IA,50162
1016 S 3RD AVE,MARSHALLTOWN,IA,51058
3700 S CENTER ST,MARSHALLTOWN,IA,50158
2001 S 4TH ST,MARSHALLTOWN,IA,50158
212 W INGLEDUE ST,MARSHALLTOWN,IA,50158
225 S ELM ST,GILMAN,IA,50106
1315 W MAIN ST,MARSHALLTOWN,IA,50158
209 S MAIN ST,LAUREL,IA,50141
206 N VINE ST,LE GRAND,IA,50142
202 BEVINS ST,CLEMONS,IA,50051
601 3RD ST NW,STATE CENTER,IA,50247
1710 WALLACE AVE,GREEN MOUNTAIN,IA,50632
1301 SUMMIT ST,MARSHALLTOWN,IA,50158
8 N 7TH ST,MARSHALLTOWN,IA,50158
105 W BOONE ST,MARSHALLTOWN,IA,50158
601 3RD ST NW,STATE CENTER,IA,50247
400 S MAIN ST,ALBION,IA,50005
3700 SOTH CENTER ST,MARSHALLTOWN,IA,50158
711 MORTON AVE,EMERSON,IA,51533
711 MORTON AVE,EMERSON,IA,51533
507 E SHARP ST,GLENWOOD,IA,51534
504 E SHARP ST,GLENWOOD,IA,51534
505 E SHARP ST,GLENWOOD,IA,51534
506 E SHARP ST,GLENWOOD,IA,51534
No data,No data,IA,
1505 E 15TH ST,MALVERN,IA,51551
605 MAIN ST,MINEOLA,IA,51554
109 N VINE ST,GLENWOOD,IA,51534
417 MAIN ST,SILVER CITY,IA,51571
18793 HWY 9,OSAGE,IA,50461
307 WOODLAND AVE,RICEVILLE,IA,50466
307 WOODLAND AVE,RICEVILLE,IA,50466
515 CHASE ST,OSAGE,IA,50461
515 CHASE ST,OSAGE,IA,50461
504 MAIN ST,OSAGE,IA,50461
504 MAIN ST,OSAGE,IA,50461
416 WILLIAM ST,CARPENTER,IA,50426
18793 HWY 9,OSAGE,IA,50461
202 SOUTH WASHINGTON STREET,ST ANSGAR,IA,50472
106 N BROAD ST,STACEYVILLE,IA,50476
610 IOWA AVE,ONAWA,IA,51040
103 PINE ST,CASTANA,IA,51010
513 MAIN ST,MAPLETON,IA,51034
320 10TH ST,ONAWA,IA,51040
108 OAK ST,SOLDIER,IA,51572
610 IOWA AVE,ONAWA,IA,51040
320 10TH ST,ONAWA,IA,51040
320 10TH ST,ONAWA,IA,51040
707 IOWA AVE,ONAWA,IA,51040
413 MAIN ST,BLENCOE,IA,51523
103 W MAIN ST,UTE,IA,51060
503 B AVE EAST,ALBIA,IA,52531
503 B AVE EAST,ALBIA,IA,52531
503 B AVE EAST,ALBIA,IA,52531
503 B AVE EAST,ALBIA,IA,52531
503 B AVE EAST,ALBIA,IA,52531
608 WEST 17TH STREET,LOVILIA,IA,50150
503 B AVE EAST,ALBIA,IA,52531
2011 N 8TH ST,RED OAK,IA,51566
2011 N 8TH ST,RED OAK,IA,51566
2011 N 8TH ST,RED OAK,IA,51566
403 MAIN ST,ELLIOTT,IA,51532
102 U AVE,GRANT,IA,50847
501 ELLIOTT ST,STANTON,IA,51573
406 E 3RD ST,VILLISCA,IA,50864
2900 MULBERRY AVE.,MUSCATINE,IA,52761
104 SAND RUN RD.,FRUITLAND,IA,52749
3300 CEDAR ST.,MUSCATINE,IA,52761
318 COMMERCE ST.,STOCKTON,IA,52769
122 3RD ST.,ATALISSA,IA,52720
621 KINDLER AVE.,MUSCATINE,IA,52761
403 E. 9TH ST.,MUSCATINE,IA,52761
3211 MULBERRY AVE.,MUSCATINE,IA,52761
408 E. 2ND ST.,MUSCATINE,IA,52761
152 COLORADO ST.,MUSCATINE,IA,52761
600 KINDLER AVE.,MUSCATINE,IA,52761
210 TAYLOR ST.,MUSCATINE,IA,52761
705 BARRY AVE.,MUSCATINE,IA,52761
1820 1ST AVE.,MUSCATINE,IA,52761
901 CEDAR ST.,MUSCATINE,IA,52761
102 3RD ST.,CONESVILLE,IA,52739
429 IJEM AVE.,NICHOLS,IA,52766
2427 INDEPENDENCE AVE.,LETTS,IA,52754
1002 CYPRESS ST.,WILTON,IA,52778
1204 N. CALHOUN ST.,WEST LIBERTY,IA,52776
1204 N. CALHOUN ST.,WEST LIBERTY,IA,52776
149 COLORADO ST.,MUSCATINE,IA,52761
1002 CYPRESS ST.,WILTON,IA,52778
416 NINTH STREET,SHELDON,IA,51201
225 MAIN STREET,SANBORN,IA,51248
91 FIRST STREET SE,HARTLEY,IA,51346
416 NINTH STREET,SHELDON,IA,51201
416 NINTH STREET,SHELDON,IA,51201
416 NINTH STREET,SHELDON,IA,51201
155 THIRD STREET NE,PRIMGHAR,IA,51245
307 W GROESBECK STREET,PAULLINA,IA,51046
509 S BEECH STREET,SUTHERLAND,IA,51058
612 8TH ST,SIBLEY,IA,51249
612 8TH ST,SIBLEY,IA,51249
612 8TH ST,SIBLEY,IA,51249
612 8TH ST,SIBLEY,IA,51249
612 8TH ST,SIBLEY,IA,51249
612 8TH ST,SIBLEY,IA,51249
612 8TH ST,SIBLEY,IA,51249
612 8TH ST,SIBLEY,IA,51249
305 E GLEN MILLER DR,CLARINDA,IA,51632
305 E GLENN MILLER DRIVE,CLARINDA,IA,51632
111 FORBES ST,ESSEX,IA,51638
307 MAIN ST.,SHAMBAUGH,IA,51651
506 DEPOT ST,COIN,IA,51636
800 W SHERIDAN AVE,SHENANDOAH,IA,51601
601 DR CREIGHTON CIR,SHENANDOAH,IA,51601
601 DR CREIGHTON CIR,SHENANDOAH,IA,51601
3200 COLLEGE DR,EMMETSBURG,IA,50536
3200 COLLEGE DR,EMMETSBURG,IA,50536
3200 COLLEGE DR,EMMETSBURG,IA,50536
3200 COLLEGE DR,EMMETSBURG,IA,50536
1503 ROLLING ST,RUTHVEN,IA,51358
316 S BROADWAY AVE,WEST BEND,IA,50597
850 KERR DRIVE,AKRON,IA,51001
511 ROOSEVELT ST,REMSEN,IA,51050
305 OAK STREET,BRUNSVILLE,IA,51008
977 3RD AVENUE SW,LE MARS,IA,51031
205 W. MAIN STREET,HINTON,IA,51024
322 QUEST AVENUE,KINGSLEY,IA,51028
608 MAIN STREET,MERRILL,IA,51038
935 PARK LANE,LE MARS,IA,51031
921 3RD AVENUE SW,LE MARS,IA,51031
921 3RD AVENUE SW,LE MARS,IA,51031
22504 C60,HINTON,IA,51024
511 ROOSEVELT ST,REMSEN,IA,51050
215 LINDEN ST,WESTFIELD,IA,51062
702 NW 7TH ST,POCAHONTAS,IA,50574
119 N MAIN ST,FONDA,IA,50540
319 GARFIELD,ROLFE,IA,50581
702 NW 7TH ST,POCAHONTAS,IA,50574
205 2ND AVE NW,POCAHONTAS,IA,50574
205 2ND AVE NW,POCAHONTAS,IA,50574
300 W GARFIELD,LAURENS,IA,50554
315 NE 141ST AVE,ALLEMAN,IA,50007
5701 SE 66TH PL,CARLISLE,IA,50047
910 7TH AVE SE,ALTOONA,IA,50009
910 7TH AVE SE,ALTOONA,IA,50009
300 17TH AVE SW,ALTOONA,IA,50009
8325 NE UNIVERSITY AVE,PLEASANT HILL,IA,50327
301 6TH ST SW,ALTOONA,IA,50009
1020 SW CHERRY ST,ANKENY,IA,50023
2600 NW ASH DRIVE,ANKENY,IA,50023
1350 SW VINTAGE PKWY,ANKENY,IA,50023
1900 NW 4TH ST,ANKENY,IA,50023
2405 SE CREEKVIEW DR,ANKENY,IA,50023
1850 SW COLLEGE AVE,ANKENY,IA,50023
1055 SW PRARIE TRAIL PKWY,ANKENY,IA,50023
710 NE 36TH ST,ANKENY,IA,50021
1705 NE TRILEIN DR,ANKENY,IA,50021
3800 NW ABILENE BLVD,ANKENY,IA,50023
710 SE 3RD ST,ANKENY,IA,50023
1005 SE TRILEIN DR,ANKENY,IA,50021
2006 S ANKENY BLVD,ANKENY,IA,50023
2920 NW 9TH ST,ANKENY,IA,50023
2006 S ANKENY BLVD,ANKENY,IA,50023
700 GARFIELD ST SW,BONDURANT,IA,50035
700 GARFIELD ST SW,BONDURANT,IA,50035
8325 NE UNIVERSITY AVE,PLEASANT HILL,IA,50327
8505 HARBACH BLVD,CLIVE,IA,50325
8355 FRANKLIN AVE,CLIVE,IA,50325
9401 INDIAN HILLS DR,CLIVE,IA,50325
14300 HICKMAN RD,CLIVE,IA,50325
2910 SW APPLEWOOD ST,ANKENY,IA,50023
406 SW SCHOOL ST,ANKENY,IA,50023
2006 S ANKENY BLVD,DES MOINES,IA,50313
4401 E 46TH ST,DES MOINES,IA,50317
2900 E 42ND ST,DES MOINES,IA,50317
3929 BELL AIRE RD,DES MOINES,IA,50310
4827 MADISON AVE,DES MOINES,IA,50310
3716 50TH ST,DES MOINES,IA,50310
3716 50TH ST,DES MOINES,IA,50310
2401 56TH ST,DES MOINES,IA,50310
4801 FRANKLIN AVE,DES MOINES,IA,50310
4800 AURORA AVE,DES MOINES,IA,50310
2309 EUCLID AVE,DES MOINES,IA,50310
203 E EUCLID AVE,DES MOINES,IA,50313
501 HOLCOMB AVE,DES MOINES,IA,50313
2700 E 42ND ST,DES MOINES,IA,50317
203 E EUCLID AVE,DES MOINES,IA,50313
3101 E 12TH ST,DES MOINES,IA,50316
705 E UNIVERSITY AVE,DES MOINES,IA,50316
815 E 13TH ST,DES MOINES,IA,50316
2820 E 24TH ST,DES MOINES,IA,50317
2820 E 24TH ST,DES MOINES,IA,50317
1411 E 33RD ST,DES MOINES,IA,50317
3100 EASTON BLVD,DES MOINES,IA,50317
2700 E 42ND ST,DES MOINES,IA,50317
4401 E 46TH ST,DES MOINES,IA,50317
3300 E 29TH ST,DES MOINES,IA,50317
2116 E 39TH ST,DES MOINES,IA,50317
2941 DEAN AVE,DES MOINES,IA,50317
815 E 13TH ST,DES MOINES,IA,50316
815 E 13TH ST,DES MOINES,IA,50316
1214 E 15TH ST,DES MOINES,IA,50316
1541 8TH ST,DES MOINES,IA,50314
1849 FOREST AVE,DES MOINES,IA,50314
1849 FOREST AVE,DES MOINES,IA,50314
2507 UNIVERSITY AVE,DES MOINES,IA,50311
4801 FRANKLIN AVE,DES MOINES,IA,50310
1555 1ST AVE N,ALTOONA,IA,50009
2250 30TH ST,DES MOINES,IA,50310
2601 FOREST AVE,DES MOINES,IA,50310
4301 COLLEGE AVE,DES MOINES,IA,50311
4419 CENTER ST,DES MOINES,IA,50312
4419 CENTER ST,DES MOINES,IA,50312
831 42ND ST,DES MOINES,IA,50312
1214 E 15TH ST,DES MOINES,IA,50316
233 CENTER ST,DES MOINES,IA,50309
900 MULBERRY ST,DES MOINES,IA,50309
2941 DEAN AVE,DES MOINES,IA,50317
806 E HOFFMAN ST,DES MOINES,IA,50316
3825 INDIANOLA AVE,DES MOINES,IA,50320
2929 SE 22ND ST,DES MOINES,IA,50320
901 E PARK AVE,DES MOINES,IA,50315
2900 INDIANOLA AVE,DES MOINES,IA,50316
1610 SE 6TH ST,DES MOINES,IA,50315
400 LOCUST ST,DES MOINES,IA,50309
1912 GRAND AVE,DES MOINES,IA,50316
950 15TH ST,DES MOINES,IA,50314
3010 CENTER ST,DES MOINES,IA,50312
730 3RD ST,DES MOINES,IA,50309
3025 OXFORD ST,DES MOINES,IA,50313
3010 CENTER ST,DES MOINES,IA,50312
316 37TH ST,DES MOINES,IA,50312
2507 UNIVERSITY AVE,DES MOINES,IA,50312
225 56TH ST,DES MOINES,IA,50312
2501 PARK AVE,DES MOINES,IA,50321
2600 SW 9TH ST,DES MOINES,IA,50315
2600 SW 9TH ST,DES MOINES,IA,50315
3141 SW 9TH ST,DES MOINES,IA,50315
2600 SW 9TH ST,DES MOINES,IA,50315
2100 SE 5TH ST,DES MOINES,IA,50315
3928 6TH AVE,DES MOINES,IA,50313
901 E PARK AVE,DES MOINES,IA,50315
2929 SE 22ND ST,DES MOINES,IA,50315
3825 INDIANOLA AVE,DES MOINES,IA,50320
6550 BLOOMFIELD RD,DES MOINES,IA,50320
201 COUNTRY LINE RD,DES MOINES,IA,50320
1111 E ARMY POST RD,DES MOINES,IA,50315
801 E KENYON AVE,DES MOINES,IA,50315
100 PAYTON AVE,DES MOINES,IA,50315
801 E KENYON AVE,DES MOINES,IA,50315
111 PORTER AVE,DES MOINES,IA,50315
4827 MADISON AVE,DES MOINES,IA,50310
5001 SW 14TH ST,DES MOINES,IA,50315
2600 SW 9TH ST,DES MOINES,IA,50315
2425 WATROUS AVE,DES MOINES,IA,50321
1401 GEIL AVE,DES MOINES,IA,50315
201 COUNTY LINE RD,DES MOINES,IA,50320
4827 MADISON AVE,DES MOINES,IA,50310
2910 SW APPLEWOOD ST,ANKENY,IA,50023
252 N WASHINGTON AVE,ELKHART,IA,50073
670 SE 68TH ST,PLEASANT HILL,IA,50327
300 GARFIELD ST SW,BONDURANT,IA,50035
12130 NW 128TH ST,GRANGER,IA,50109
500 S JAMES ST,GRIMES,IA,50111
500 S JAMES ST,GRIMES,IA,50111
410 SE MAIN ST,GRIMES,IA,50111
410 SE MAIN ST,GRIMES,IA,50111
6501 NW 62ND AVE,JOHNSTON,IA,50131
6501 NW 62ND AVE,JOHNSTON,IA,50131
7370 NW 54TH AVE,JOHNSTON,IA,50131
8701 LYNDHURST DR,JOHNSTON,IA,50131
6207 NW 62ND AVE,JOHNSTON,IA,50131
6207 NW 62ND AVE,JOHNSTON,IA,50131
1400 W BROADWAY ST,POLK CITY,IA,50226
308 ELM AVE NW,MITCHELLVILLE,IA,50169
5299 E UNIVERSITY AVE,PLEASANT HILL,IA,50327
5299 E UNIVERSITY AVE,PLEASANT HILL,IA,50327
670 SE 68TH ST,PLEASANT HILL,IA,50327
1400 W BROADWAY ST,POLK CITY,IA,50226
6575 SE 116TH ST,RUNNELLS,IA,50237
125 NW BROADWAY AVE,DES MOINES,IA,50313
5810 NE 14TH ST,DES MOINES,IA,50313
1400 W BROADWAY ST,POLK CITY,IA,50226
6301 AURORA AVE,URBANDALE,IA,50322
12955 AURORA AVE,URBANDALE,IA,50323
11121 HICKMAN RD,URBANDALE,IA,50322
8100 AIRLINE AVE,URBANDALE,IA,50322
3500 74TH ST,URBANDALE,IA,50322
7701 AURORA AVE,URBANDALE,IA,50322
7701 AURORA AVE,URBANDALE,IA,50322
7111 AURORA AVE,URBANDALE,IA,50322
3305 92ND ST,URBANDALE,IA,50322
9000 DOUGLAS AVE,URBANDALE,IA,50322
12955 AURORA AVE,URBANDALE,IA,50323
11180 NE 134TH AVE,MAXWELL,IA,50161
4827 MADISON AVE,DES MOINES,IA,50310
1401 VINE ST,WEST DES MOINES,IA,50265
1601 VINE ST,DES MOINES,IA,50266
713 8TH ST,WEST DES MOINES,IA,50265
1601 VINE ST,WEST DES MOINES,IA,50265
600 39TH ST,WEST DES MOINES,IA,50265
1020 8TH ST,WEST DES MOINES,IA,50266
5500 EP TRUE PKWY,WEST DES MOINES,IA,50265
1020 8TH ST,WEST DES MOINES,IA,50265
1050 50TH ST,WEST DES MOINES,IA,50266
3650 WOODLAND AVE,WEST DES MOINES,IA,50266
5300 ASWORTH RD,WEST DES MOINES,IA,50266
625 S 35TH ST,WEST DES MOINES,IA,50266
625 S 35TH ST,WEST DES MOINES,IA,50265
3550 MILLS CIVIC PKWY,WEST DES MOINES,IA,50265
807 23RD ST,WEST DES MOINES,IA,50265
4105 FULLER RD,WEST DES MOINES,IA,50265
625 S 35TH ST,WEST DES MOINES,IA,50265
5959 GRAND AVE,WEST DES MOINES,IA,50266
4444 FULLER RD,WEST DES MOINES,IA,50265
5912 UNIVERSITY AVE,DES MOINES,IA,50311
1600 73RD ST,WINDSOR HEIGHTS,IA,50324
9401 INDIAN HILLS DR,CLIVE,IA,50325
768 S MAPLE ST,AVOCA,IA,51521
18997 HWY 59,OAKLAND,IA,51560
1000 WILLOW DR,CARTER LAKE,IA,51510
1000 WILLOW DR,CARTER LAKE,IA,51501
3130 AVENUE C,COUNCIL BLUFFS,IA,51501
3130 AVENUE C,COUNCIL BLUFFS,IA,51501
2828 AVE G,COUNCIL BLUFFS,IA,51501
715 N 21ST ST,COUNCIL BLUFFS,IA,51501
715 N 21ST ST,COUNCIL BLUFFS,IA,51501
1205 N BROADWAY,COUNCIL BLUFFS,IA,51503
140 W KANESVILLE BLVD,COUNCIL BLUFFS,IA,51503
1205 N BROADWAY,COUNCIL BLUFFS,IA,51503
1225 COLLEGE ROAD,COUNCIL BLUFFS,IA,51503
1205 BONHAM ST,COUNCIL BLUFFS,IA,51503
1205 BONHAM ST,COUNCIL BLUFFS,IA,51503
11 S 1ST ST,COUNCIL BLUFFS,IA,51503
1205 BONHAM ST,COUNCIL BLUFFS,IA,51503
1205 BONHAM ST,COUNCIL BLUFFS,IA,51503
2011 S 10TH ST,COUNCIL BLUFFS,IA,51503
2218 3RD AVE,COUNCIL BLUFFS,IA,51501
2501 W BROADWAY,COUNCIL BLUFFS,IA,51501
3326 6TH AVE,COUNCIL BLUFFS,IA,51501
2011 S 10TH ST,COUNCIL BLUFFS,IA,51501
2700 COLLEGE RD,COUNCIL BLUFFS,IA,51503
224 WALLACE AVE,COUNCIL BLUFFS,IA,51501
2700 COLLEGE RD,COUNCIL BLUFFS,IA,51503
401 E WELCH ST,CRESCET,IA,51526
400 CLOVERDALE DR,COUNCIL BLUFFS,IA,51503
18997 HWY 59,OAKLAND,IA,51560
768 S MAPLE ST,AVOCA,IA,51521
2700 COLLEGE RD,COUNCIL BLUFFS,IA,51503
3820 HARRY LANGDON BLVD,COUNCIL BLUFFS,IA,51503
404 POTTER ST,MACEDONIA,IA,51549
601 3RD ST,UNDERWOOD,IA,51576
205 MAIN ST,MINDEN,IA,51553
33980 310TH ST,NEOLA,IA,51559
18997 HWY 59,OAKLAND,IA,51560
2 ELEMENTARY DR,TREYNOR,IA,51575
601 3RD ST,UNDERWOOD,IA,51576
415 ANTIQUE CITY DR.,WALNUT,IA,51577
1201 10TH AVENUE,GRINNELL,IA,50112
1333 SUNSET ST.,GRINNELL,IA,50112
925 PARK STREET,GRINNELL,IA,50112
132 E ST S,GRINNELL,IA,50112
1090 JACKSON STREET,BROOKLYN,IA,52211
425 E STREET S,GRINNELL,IA,50112
504 N. 4TH STREET,MONTEZUMA,IA,50171
504 N. 4TH STREET,MONTEZUMA,IA,50171
504 N. 4TH STREET,MONTEZUMA,IA,50171
212 MAIN STREET,MALCOM,IA,50157
304 ADAMS ST,KELLERTON,IA,50133
111 STATE ST,BENTON,IA,50835
109 W MADISON ST,MT. AYR,IA,50854
109 W MADISON ST,MT. AYR,IA,50854
111 W MAIN ST,TINGLEY,IA,50863
MAIN ST,ELLSTON,IA,50074
103 BROADWAY ST,DIAGONAL,IA,50845
101 PINE ST.,AUBURN,IA,51433
107 MAIN ST,EARLY,IA,50535
801 JACKSON ST,LAKE VIEW,IA,51450
118 MAIN ST.,LYTTON,IA,50561
107 MAIN ST,EARLY,IA,50535
600 MAPLE ST,ODEBOLT,IA,51458
1015 W MAIN ST.,SAC CITY,IA,50583
107 MAIN ST,EARLY,IA,50535
801 JACKSON ST,LAKE VIEW,IA,51450
212 S. PARKVIEW DR.,ELDRIDGE,IA,52748
2021 STATE ST,BETTENDORF,IA,52722
2021 STATE ST,BETTENDORF,IA,52722
2021 STATE ST,BETTENDORF,IA,52722
2021 STATE ST,BETTENDORF,IA,52722
2021 STATE ST,BETTENDORF,IA,52722
2021 STATE ST,BETTENDORF,IA,52722
2021 STATE ST,BETTENDORF,IA,52722
2021 STATE ST,BETTENDORF,IA,52722
2021 STATE ST,BETTENDORF,IA,52722
2021 STATE ST,BETTENDORF,IA,52722
No data,No data,IA,
1000 JEFFERSON ST.,BUFFALO,IA,52728
226 W. SYCAMORE ST.,BLUE GRASS,IA,52726
1000 JEFFERSON ST.,BUFFALO,IA,52728
3505 W LOCUST ST,DAVENPORT,IA,52804
1307 WISCONSIN AVE,DAVENPORT,IA,52804
622 S. CONCORD ST.,DAVENPORT,IA,52802
1934 W. 5TH ST.,DAVENPORT,IA,52802
4515 N. FAIRMOUNT ST.,DAVENPORT,IA,52806
2002 N. CLARK ST.,DAVENPORT,IA,52804
5506 N. PINE ST.,DAVENPORT,IA,52806
7307 PACIFIC ST.,DAVENPORT,IA,52806
1926 W. 4TH ST.,DAVENPORT,IA,52802
1221 N. MYRTLE ST.,DAVENPORT,IA,52804
1702 N. MAIN ST.,DAVENPORT,IA,52803
1027 N. MARQUETTE ST.,DAVENPORT,IA,52804
3040 N. DIVISION ST.,DAVENPORT,IA,52804
3040 N. DIVISION ST.,DAVENPORT,IA,52804
2100 N. RIPLEY ST.,DAVENPORT,IA,52803
2100 N. RIPLEY ST.,DAVENPORT,IA,52803
1608 E. LOCUST ST.,DAVENPORT,IA,52803
1702 N. MAIN ST.,DAVENPORT,IA,52803
116 E LOCUST ST.,DAVENPORT,IA,52803
1120 MAIN ST,DAVENPORT,IA,52803
1716 KENWOOD AVE.,DAVENPORT,IA,52803
2827 JERSEY RIDGE RD,DAVENPORT,IA,52803
1414 E. LOCUST ST.,DAVENPORT,IA,52803
1120 MAIN ST.,DAVENPORT,IA,52803
626 W. 53RD ST.,DAVENPORT,IA,52806
3029 N. DIVISION ST.,DAVENPORT,IA,52804
902 E. 29TH ST.,DAVENPORT,IA,52803
626 W. 53RD ST.,DAVENPORT,IA,52806
7307 PACIFIC ST.,DAVENPORT,IA,52806
5506 N. PINE ST.,DAVENPORT,IA,52806
1032 W. 53RD ST.,DAVENPORT,IA,52806
1032 W. 53RD ST.,DAVENPORT,IA,52806
212 S. PARKVIEW DR.,ELDRIDGE,IA,52748
400 S. 16TH AVE.,ELDRIDGE,IA,52748
400 S. 16TH AVE.,ELDRIDGE,IA,52748
212 S. PARKVIEW DR.,ELDRIDGE,IA,52748
212 S. PARKVIEW DR.,ELDRIDGE,IA,52748
316 S. 12TH ST.,LE CLAIRE,IA,52753
316 S. 12TH ST.,LE CLAIRE,IA,52753
2100 TERRITORIAL RD,LE CLAIRE,IA,52753
121 S. 5TH ST.,ELDRIDGE,IA,52748
502 S 5TH ST,ELDRIDGE,IA,52748
502 S. 5TH ST.,ELDRIDGE,IA,52748
500 LOST GROVE RD.,PRINCETON,IA,52768
No data,No data,IA,
2125 DEVILS GLEN RD,BETTENDORF,IA,
545 E. JAMES ST.,WALCOTT,IA,52773
121 S. 5TH ST.,ELDRIDGE,IA,52748
4212 MAIN ST,ELK HORN,IA,51531
706 VICTORIA ST,HARLAN,IA,51537
706 VICTORIA ST,HARLAN,IA,51537
706 VICTORIA ST,HARLAN,IA,51537
706 VICTORIA ST,HARLAN,IA,51537
1901 HAWKEYE AVE,HARLAN,IA,51537
106 STATE ST,KIRKMAN,IA,51447
500 EAST STREET,SHELBY,IA,51570
212 2ND STREET,EARLING,IA,51530
605 10TH ST,ALTON,IA,51003
112 ALBANY AVE SE,ORANGE CITY,IA,51041
714 MAIN ST,BOYDEN,IA,51234
1198 CENTRAL AVE,HAWARDEN,IA,51023
1408 MAIN ST,HULL,IA,51239
112 ALBANY AVE SE,ORANGE CITY,IA,51041
105 ALBANY AVE SE,ORANGE CITY,IA,51041
1304 10TH ST.,ROCK VALLEY,IA,51247
1198 CENTRAL AVE,HAWARDEN,IA,51023
1304 10TH ST.,ROCK VALLEY,IA,51247
1304 10TH ST.,ROCK VALLEY,IA,51247
112 ALBANY AVE SE,ORANGE CITY,IA,51041
770 7TH ST NE,SIOUX CENTER,IA,51250
770 7TH ST NE,SIOUX CENTER,IA,51250
102 S MAIN AVE,SIOUX CENTER,IA,51250
105 ALBANY AVE SE,ORANGE CITY,IA,51041
3521 JEWEL DR,AMES,IA,50010
2508 MORTENSEN RD,AMES,IA,50014
1805 CENTER DR,AMES,IA,50011
520 SIXTH STREET,AMES,IA,50010
300 20TH ST,AMES,IA,50010
1900 CENTER DR,AMES,IA,50011
1921 AMES HIGH DR,AMES,IA,50010
1235 20TH ST,AMES,IA,50010
1921 AMES HIGH DR,AMES,IA,50010
312 GRETTEN ST,GILBERT,IA,50105
3915 MORTENSEN RD,AMES,IA,50014
3915 MORTENSEN RD,AMES,IA,50014
3915 MORTENSEN RD,AMES,IA,50014
820 MILLER AVE,AMES,IA,50014
4316 ONTARIO ST,AMES,IA,50014
1805 CENTER DR,AMES,IA,50011
1805 CENTER DR,AMES,IA,50011
2229 LINCOLN WAY,AMES,IA,50014
2229 LINCOLN WAY,AMES,IA,50014
1921 AMES HIGH DR,AMES,IA,50010
219 MAIN ST,COLLINS,IA,50055
201 EAST MATHEWS DR,GILBERT,IA,50105
1420 S. BELL AVENUE,AMES,IA,50010
206 S. MAIN ST,ROLAND,IA,50236
515 N MAIN AVE,HUXLEY,IA,50124
81 MAIN ST,MAXWELL,IA,50161
1009 STORY ST,STORY CITY,IA,50248
101 E MAIN ST,ZEARING,IA,50278
56461 180TH ST,AMES,IA,50010
1001 15TH ST,NEVADA,IA,50201
925 H AVE,NEVADA,IA,50201
220 H AVE,NEVADA,IA,50201
825 15TH ST,NEVADA,IA,50201
1035 15TH ST,NEVADA,IA,50201
919 WEST ST,COLO,IA,50056
701 BALLARD DR,HUXLEY,IA,50124
1001 15TH ST,NEVADA,IA,50201
919 WEST ST,COLO,IA,50056
105 E MAIN,SLATER,IA,50244
1009 STORY ST,STORY CITY,IA,50248
225 WATER ST,CAMBRIDGE,IA,50046
400 LATROBE,MCCALLSBURG,IA,50154
3915 MORTENSEN RD,AMES,IA,50014
600 3RD ST,GARWIN,IA,50632
214 MAIN ST,CLUTIER,IA,52217
505 WEST ST,DYSART,IA,52224
1611 COUNTRY CLUB DR,TAMA,IA,52339
110 MAIN ST,LINCOLN,IA,50652
102 E ELM ST,MONTOUR,IA,50173
349 MESKWAKI RD,TAMA,IA,52339
110 MAIN ST,LINCOLN,IA,50652
605 WALNUT ST,TRAER,IA,50675
201 DUDLEY ST,CHELSEA,IA,52215
1611 COUNTRY CLUB DR,TAMA,IA,52339
421 JOHNSTON ST,GLADBROOK,IA,50635
206 E HIGH ST,TOLEDO,IA,52342
206 E HIGH ST,TOLEDO,IA,52342
106 MAIN ST,ELBERON,IA,52225
405 DIVISION ST,BLOCKTON,IA,50836
210 E DALLAS ST,LENOX,IA,50851
304 MAIN ST,GRAVITY,IA,50848
512 MAIN ST,NEW MARKET,IA,51646
210 E DALLAS ST.,LENOX,IA,50851
906 PENNSYLVANIA ST,BEDFORD,IA,50833
906 PENNSYLVANIA ST,BEDFORD,IA,50833
1916 HIGH SCHOOL DRIVE,AFTON,IA,50830
1916 HIGH SCHOOL DRIVE,AFTON,IA,50830
601 W TOWNLINE ST,CRESTON,IA,50801
1916 HIGH SCHOOL DRIVE,AFTON,IA,50830
805 ACADEMIC AVE,CRESTON,IA,50801
601 W TOWNLINE ST,CRESTON,IA,50801
601 W TOWNLINE ST,CRESTON,IA,50801
601 W TOWNLINE ST,CRESTON,IA,50801
110 N. CROSS ST.,BIRMINGHAM,IA,52535
103 MAIN ST.,BONAPARTE,IA,52620
104 W. 3RD ST.,CANTRIL,IA,52542
14574 JEFFERSON ST.,DOUDS,IA,52551
203 ELM ST.,FARMINGTON,IA,52626
406 DODGE ST.,KEOSAUQUA,IA,52565
301 E. OAK ST.,MILTON,IA,52570
406 DODGE ST.,KEOSAUQUA,IA,52565
407 WILSON ST.,BLAKESBURG,IA,52536
150-100 HAZEL ST.,AGENCY,IA,52530
1301 BURDAN ST.,EDDYVILLE,IA,52553
101 W. 4TH ST.,OTTUMWA,IA,52501
1301 BURDAN ST.,EDDYVILLE,IA,52553
2624 MARILYN RD.,OTTUMWA,IA,52501
655 INDIAN HILLS DR.,OTTUMWA,IA,52501
307 W. MARY ST.,OTTUMWA,IA,52501
2624 MARILYN RD.,OTTUMWA,IA,52501
1305 E. MARY ST.,OTTUMWA,IA,52501
1102 E 4TH ST,OTTUMWA,IA,52501
812 CHESTER AVE,OTTUMWA,IA,52501
1523 N COURT ST,OTTUMWA,IA,52501
2814 N COURT,OTTUMWA,IA,52501
1001 N BENTON ST,OTTUMWA,IA,52501
102 CHURCH ST.,OTTUMWA,IA,52501
205 N. JAMES ST.,OTTUMWA,IA,52501
307 W MARY ST,OTTUMWA,IA,52501
50 TRAXLER DR,OTTUMWA,IA,52501
50 TRAXLER DR.,OTTUMWA,IA,52501
655 INDIAN HILLS DR.,OTTUMWA,IA,52501
608 W ELM ST,ELDON,IA,52554
430 SCHOOL ST,CARLISLE,IA,50047
430 SCHOOL ST,CARLISLE,IA,50047
113 MAIN ST,MILO,IA,50166
1201 NORTH AVE,NORWALK,IA,50211
2300 R62 HWY,NORWALK,IA,50211
8383 RIDGEVIEW DR,DES MOINES,IA,50320
13015 SCOTCH RIDGE RD,CARLISLE,IA,50047
1304 E 1ST AVE,INDIANOLA,IA,50125
1304 E 1ST AVE,INDIANOLA,IA,50125
701 N C ST,INDIANOLA,IA,50125
701 N C ST,INDIANOLA,IA,50125
1304 E 1ST AVE,INDIANOLA,IA,50125
630 N C ST,INDIANOLA,IA,50125
1306 W SALEM AVE,INDIANOLA,IA,50125
1306 W SALEM AVE,INDIANOLA,IA,50125
390 BURLINGTON AVE,MARTENSDALE,IA,50160
390 BURLINGTON AVE,MARTENSDALE,IA,50160
16331 TYLER ST,LIBERTY CENTER,IA,50145
8020 KENNEDY ST,INDIANOLA,IA,50125
1201 NORTH AVE,NORWALK,IA,50211
4380 WAKONDA DR,NORWALK,IA,50211
1201 NORTH AVE,NORWALK,IA,50211
1201 NORTH AVE,NORWALK,IA,50211
113 MAIN ST,MILO,IA,50166
19397 G24 HWY,CARLISLE,IA,50047
500 N VINE STREET,HARTFORD,IA,50118
10804 G76 HWY,NEW VIRGINIA,IA,50210
199 1ST ST,ACKWORTH,IA,50001
503 WEST ST,NEW VIRGINIA,IA,50210
519 N WASHINGTON ST,LACONA,IA,50139
15565 118TH AVE,INDIANOLA,IA,50125
835 PARK ST.,AINSWORTH,IA,52201
100 E. WASHINGTON ST.,BRIGHTON,IA,52540
713 F AVE.,KALONA,IA,52247
220 SCHNOEBELEN ST.,RIVERSIDE,IA,52327
1015 S. IOWA AVE.,WASHINGTON,IA,52353
115 W. WASHINGTON BLVD.,WASHINGTON,IA,52353
606 S. 4TH AVE.,WASHINGTON,IA,52353
821 N. 4TH AVE.,WASHINGTON,IA,52353
525 13TH ST.,WELLMAN,IA,52356
510 MAIN ST.,WEST CHESTER,IA,52359
106 N. CENTRAL AVE.,ALLERTON,IA,50008
607 S. WEST ST.,CORYDON,IA,50060
111 N. EATON ST.,HUMESTON,IA,50123
100 S. PARK AVE.,SEYMOUR,IA,52590
150 2ND ST SE,BADGER,IA,50516
505 THOMAS ST,CALLENDER,IA,50523
510 FOLGER ST.,DUNCOMB,IA,50532
800 N 32ND ST,FORT DODGE,IA,50501
104 1ST ST NE,DAYTON,IA,50530
203 N HOOD ST,CLARE,IA,50524
1 TRITON CIR,FORT DODGE,IA,50501
22770 OLD HWY 169,FORT DODGE,IA,50501
819 N 25TH ST,FORT DODGE,IA,50501
819 N 25TH ST,FORT DODGE,IA,50501
819 N 25TH ST,FORT DODGE,IA,50501
819 N 25TH ST,FORT DODGE,IA,50501
800 N 32ND ST,FORT DODGE,IA,50501
731 EXPOSITION DRIVE,FORT DODGE,IA,50501
800 N 32ND ST,FORT DODGE,IA,50501
420 KENYON RD,FORT DODGE,IA,50501
308 CENTRAL AVE,FORT DODGE,IA,50501
800 N 32ND ST,FORT DODGE,IA,50501
800 N 32ND ST,FORT DODGE,IA,50501
800 N 32ND ST,FORT DODGE,IA,50501
416 3RD STREET WEST,MOORLAND,IA,50566
1206 MARKET ST,GOWRIE,IA,50543
416 EAST ST,BARNUM,IA,50518
113 N ASH,HARCOURT,IA,50544
102 S 1ST ST,VINCENT,IA,50594
220 RAKE ST,OTHO,IA,50569
114 MAIN ST,LEHIGH,IA,50557
510 FOLGER ST.,DUNCOMB,IA,50532
111 3RD AVENUE NW,BUFFALO CENTER,IA,50424
102 S 4TH AVE E,LAKE MILLS,IA,50450
121 MAIN STREET,SCARVILLE,IA,50473
106 SOUTH 6TH STREET,FOREST CITY,IA,50436
106 SOUTH 6TH STREET,FOREST CITY,IA,50436
106 SOUTH 6TH STREET,FOREST CITY,IA,50436
106 SOUTH 6TH STREET,FOREST CITY,IA,50436
102 JACKSON ST N,THOMPSON,IA,50478
146 S 9TH ST,FOREST CITY,IA,50436
316 WALNUT ST,LELAND,IA,50453
3495 N WINN RD,DECORAH,IA,52101
303 3RD ST NW,FORT ATKINSON,IA,52144
202 WINNEBAGO ST,DECORAH,IA,52101
806 RIVER ST,DECORAH,IA,52101
100 CLAIBORNE DR,DECORAH,IA,52101
405 WINNEBAGO ST,DECORAH,IA,52101
700 COLLEGE DR,DECORAH,IA,52101
700 COLLEGE DR,DECORAH,IA,52101
1625 IA-50,CALMAR,IA,52132
123 W MAIN ST,OSSIAN,IA,52161
690 COUNTY ST,RIDGEWAY,IA,52165
3303 REBECCA ST,SIOUX CITY,IA,51104
4600 HAMILTON BLVD,SIOUX CITY,IA,51104
315 HAMILTON BLVD,SIOUX CITY,IA,51103
2801 JACKSON ST,SIOUX CITY,IA,51104
608 NEBRASKA ST,SIOUX CITY,IA,51101
1807 NEBRASKA ST,SIOUX CITY,IA,51105
4100 OUTER DR N,SIOUX CITY,IA,51108
1424 27TH ST,SIOUX CITY,IA,51104
3040 JONES STREET,SIOUX CITY,IA,51104
4400 CENTRAL ST,SIOUX CITY,IA,51106
2101 OUTER DR,SIOUX CITY,IA,51104
1717 CASSELMAN ST,SIOUX CITY,IA,51103
600 COURT ST,SIOUX CITY,IA,51106
4101 STONE AVE,SIOUX CITY,IA,51106
4327 MORNINGSIDE AVE,SIOUX CITY,IA,51106
1501 MORNINGSIDE AVE,SIOUX CITY,IA,51106
3601 BUSHNELL AVE,SIOUX CITY,IA,51106
3625 GARRETSON AVE,SIOUX CITY,IA,51106
5401 LORRAINE AVE,SIOUX CITY,IA,51106
5200 GLENN AVE,SIOUX CITY,IA,51106
3038 S. LAKEPORT ST,SIOUX CITY,IA,51106
208 PORT NEAL RD,SERGEANT BLUFF,IA,51054
2000 MILITARY RD,SIOUX CITY,IA,51103
201 PORT NEAL RD,SERGEANT BLUFF,IA,51056
317 TIPTON ST,SALIX,IA,51052
27 WASHINGTON ST,OTO,IA,51044
321 4TH ST,PIERSON,IA,51048
916 HACKABERRY ST,CORRECTIONVILLE,IA,51016
408 S 4TH ST,MOVILLE,IA,51039
100 TARA WAY,LAWTON,IA,51030
113 W 1ST ST,BRONSON,IA,51007
428 EVANS ST,SLOAN,IA,51055
400 MAIN ST,HORNICK,IA,51026
313 COOK DR,SIOUX CITY,IA,51103
110 W DIVISION ST,ANTHON,IA,51004
201 MAIN ST,DANBURY,IA,51019
110 W HICKORY ST,SMITHLAND,IA,51056
110 W DIVISION ST,ANTHON,IA,51004
916 HACKBERRY ST,CORRECTIONVILLE,IA,51016
2303 RIVERSIDE BLVD,SIOUX CITY,IA,51109
2200 W 19TH,SIOUX CITY,IA,51103
1114 W. 27TH STREET,SIOUX CITY,IA,51103
1623 REBECCA ST,SIOUX CITY,IA,51103
406 12TH ST,SIOUX CITY,IA,51103
202 6TH AVE,GRAFTON,IA,50440
201 FRANKE ST,JOICE,IA,50446
207 5TH ST,KENSETT,IA,50448
3494 EAGLE AVE,HANLONTOWN,IA,50444
1200 1ST AVE N,NORTHWOOD,IA,50459
3494 EAGLE AVE,FERTILE,IA,50434
106 S BROADWAY ST,MANLY,IA,50456
411 10TH AVE NE,BELMOND,IA,50421
300 3RD AVE NE,CLARION,IA,50525
300 3RD AVE NE,CLARION,IA,50525
114 W ELLSWORTH ST,DOWS,IA,50071
1015 NW 2ND ST,EAGLE GROVE,IA,50533
1015 NW 2ND ST,EAGLE GROVE,IA,50533
1015 NW 2ND ST,EAGLE GROVE,IA,50533
1015 NW 2ND ST,EAGLE GROVE,IA,50533
502 N MAIN ST,GOLDFIELD,IA,50542
102 MCARTHUR ST,WOOLSTOCK,IA,50599
